GSAT0101 (PRN E11)      
1 37846U 11060A   23076.01412508 -.00000086  00000+0  00000+0 0  9998
2 37846  57.0778  13.9373 0004083   1.5966 358.3953  1.70475817 70869
GSAT0102 (PRN E12)      
1 37847U 11060B   23074.48591115 -.00000079  00000+0  00000+0 0  9992
2 37847  57.0782  13.9786 0005137 337.8699 210.8843  1.70475193 70847
GSAT0103 (PRN E19)      
1 38857U 12055A   23072.53365188  .00000026  00000+0  00000+0 0  9993
2 38857  55.2209 134.2981 0005049 260.3934  99.6258  1.70473539 64692
GSAT0104 (PRN E20)      
1 38858U 12055B   23073.67652165  .00000020  00000+0  00000+0 0  9998
2 38858  55.2211 134.2681 0002451 250.0562 109.9895  1.70473767 64718
GSAT0201 (PRN E18)      
1 40128U 14050A   23075.94220825 -.00000049  00000+0  00000+0 0  9996
2 40128  50.0812 321.4151 1612078 133.8589 240.6486  1.85519117 56270
GSAT0202 (PRN E14)      
1 40129U 14050B   23076.20221503 -.00000048  00000+0  00000+0 0  9990
2 40129  50.1022 320.4725 1609441 134.6822 239.6186  1.85519671 58441
GSAT0203 (PRN E26)      
1 40544U 15017A   23072.27405179 -.00000073  00000+0  00000+0 0  9999
2 40544  56.8724  14.0353 0003911 287.6764  72.2778  1.70475606 48888
GSAT0204 (PRN E22)      
1 40545U 15017B   23073.11396959 -.00000075  00000+0  00000+0 0  9991
2 40545  56.8787  14.0261 0003090 278.2714  81.6902  1.70475320 11948
GSAT0205 (PRN E24)      
1 40889U 15045A   23075.22845260  .00000052  00000+0  00000+0 0  9995
2 40889  55.4582 254.4505 0006061  35.9835 324.0474  1.70473484 46744
GSAT0206 (PRN E30)      
1 40890U 15045B   23074.86256894  .00000054  00000+0  00000+0 0  9997
2 40890  55.4580 254.4564 0004123  34.7622 325.2552  1.70473498 46764
GSAT0209 (PRN E09)      
1 41174U 15079A   23074.44826368  .00000018  00000+0  00000+0 0  9993
2 41174  55.2374 133.9509 0004567 297.9760  62.0488  1.70474777 45075
GSAT0208 (PRN E08)      
1 41175U 15079B   23075.84096674  .00000017  00000+0  00000+0 0  9997
2 41175  55.2373 133.9107 0003675 298.1961  61.8392  1.70474681 44933
GSAT0211 (PRN E02)      
1 41549U 16030A   23074.78824847  .00000055  00000+0  00000+0 0  9995
2 41549  55.6055 254.4202 0003867   8.6001 351.3970  1.70473498 42398
GSAT0210 (PRN E01)      
1 41550U 16030B   23075.07974965  .00000053  00000+0  00000+0 0  9995
2 41550  55.6036 254.4135 0001793 347.2027  12.7831  1.70473520 42390
GSAT0207 (PRN E07)      
1 41859U 16069A   23072.39592757  .00000026  00000+0  00000+0 0  9996
2 41859  54.8974 134.1220 0005775 284.5325  75.4802  1.70474718 39087
GSAT0212 (PRN E03)      
1 41860U 16069B   23075.76978477  .00000016  00000+0  00000+0 0  9998
2 41860  54.8967 134.0256 0003486 301.5576  58.4804  1.70473369 39392
GSAT0213 (PRN E04)      
1 41861U 16069C   23075.54840107  .00000016  00000+0  00000+0 0  9993
2 41861  54.8991 134.0374 0005045 268.1878  91.8259  1.70473394 39255
GSAT0214 (PRN E05)      
1 41862U 16069D   23072.76263027  .00000024  00000+0  00000+0 0  9994
2 41862  54.8967 134.1090 0003884 268.1509  91.8798  1.70473562 39339
GSAT0215 (PRN E21)      
1 43055U 17079A   23075.01230495  .00000053  00000+0  00000+0 0  9998
2 43055  55.5806 254.2426 0001339   0.4424 359.5478  1.70474218 32711
GSAT0216 (PRN E25)      
1 43056U 17079B   23074.71775721  .00000055  00000+0  00000+0 0  9993
2 43056  55.5813 254.2505 0002368 318.0822  41.8899  1.70474334 32729
GSAT0217 (PRN E27)      
1 43057U 17079C   23074.93807037  .00000054  00000+0  00000+0 0  9993
2 43057  55.5797 254.2436 0002699 342.0536  17.9270  1.70474238 32719
GSAT0218 (PRN E31)      
1 43058U 17079D   23075.74467093  .00000049  00000+0  00000+0 0  9992
2 43058  55.5790 254.2188 0002549 305.3992  54.5656  1.70474264 32757
GSAT0221 (PRN E15)      
1 43564U 18060A   23076.23000194 -.00000086  00000+0  00000+0 0  9997
2 43564  57.2542  13.8124 0004710 302.5508  57.3940  1.70475288 28924
GSAT0222 (PRN E33)      
1 43565U 18060B   23073.51696763 -.00000075  00000+0  00000+0 0  9997
2 43565  57.2559  13.8865 0004682 310.5368  49.4187  1.70475300 28915
GSAT0219 (PRN E36)      
1 43566U 18060C   23073.15089632 -.00000074  00000+0  00000+0 0  9998
2 43566  57.2564  13.8985 0004515 308.7235  51.2328  1.70475373 28886
GSAT0220 (PRN E13)      
1 43567U 18060D   23075.13098550 -.00000081  00000+0  00000+0 0  9996
2 43567  57.2563  13.8457 0004230 309.9720  49.9839  1.70475036 28906
GSAT0223 (PRN E34)      
1 49809U 21116A   23075.28521465 -.00000082  00000+0  00000+0 0  9990
2 49809  57.2484  13.7384 0001101 280.2753 264.5255  1.70475203  7913
GSAT0224 (PRN E10)      
1 49810U 21116B   23074.51438072 -.00000079  00000+0  00000+0 0  9994
2 49810  57.2490  13.7575 0000947 315.3872 228.8128  1.70475246  7923
